[{"OBJECT_NAME":"STARLINK-35881","OBJECT_ID":"2025-280K","EPOCH":"2026-03-09T23:15:17.063136","MEAN_MOTION":14.9839933,"ECCENTRICITY":0.00016193,"INCLINATION":70.0042,"RA_OF_ASC_NODE":333.92,"ARG_OF_PERICENTER":218.1502,"MEAN_ANOMALY":141.9542,"EPHEMERIS_TYPE":0,"CLASSIFICATION_TYPE":"U","NORAD_CAT_ID":66830,"ELEMENT_SET_NO":999,"REV_AT_EPOCH":1611,"BSTAR":0.0034462676,"MEAN_MOTION_DOT":0.00041343,"MEAN_MOTION_DDOT":0},{"OBJECT_NAME":"VANGUARD 2","OBJECT_ID":"1959-001A","EPOCH":"2026-03-09T19:18:25.550496","MEAN_MOTION":11.90268048,"ECCENTRICITY":0.14456611,"INCLINATION":32.8708,"RA_OF_ASC_NODE":101.2249,"ARG_OF_PERICENTER":211.3482,"MEAN_ANOMALY":139.2428,"EPHEMERIS_TYPE":0,"CLASSIFICATION_TYPE":"U","NORAD_CAT_ID":11,"ELEMENT_SET_NO":999,"REV_AT_EPOCH":52362,"BSTAR":0.00053091218,"MEAN_MOTION_DOT":1.038e-5,"MEAN_MOTION_DDOT":0}]
